{
  "type": "FeatureCollection",
  "features": [
    {
      "type": "Feature",
      "properties": {
        "norad_id": 34854,
        "name": "COSMOS 2251 DEB",
        "group": "cosmos-2251-debris",
        "lat": -62.66811205383077,
        "lon": -10.475710903673033,
        "alt_km": 600.2243582252086,
        "timestamp": "2025-12-24T07:45:06.594163+00:00",
        "meta_object_name": "COSMOS 2251 DEB",
        "meta_object_id": "1993-036ABY",
        "meta_epoch": "2025-12-23T02:59:29.308992",
        "meta_mean_motion": 14.76722468,
        "meta_eccentricity": 0.00659618,
        "meta_inclination": 74.0297,
        "meta_ra_of_asc_node": 138.2247,
        "meta_arg_of_pericenter": 247.8354,
        "meta_mean_anomaly": 111.5813,
        "meta_ephemeris_type": 0,
        "meta_classification_type": "U",
        "meta_norad_cat_id": 34854,
        "meta_element_set_no": 999,
        "meta_rev_at_epoch": 72035,
        "meta_bstar": 0.00083387478,
        "meta_mean_motion_dot": 6.022e-05,
        "meta_mean_motion_ddot": 0,
        "tle_line1": "1 34854U 93036ABY 25357.12464478  .00006022  00000+0  83387-3 0  9994",
        "tle_line2": "2 34854  74.0297 138.2247 0065961 247.8354 111.5813 14.76722468720356"
      },
      "geometry": {
        "type": "Point",
        "coordinates": [
          -10.475710903673033,
          -62.66811205383077
        ]
      }
    },
    {
      "type": "Feature",
      "properties": {
        "norad_id": 34856,
        "name": "COSMOS 2251 DEB",
        "group": "cosmos-2251-debris",
        "lat": 58.797956874538094,
        "lon": -147.26743077520553,
        "alt_km": 536.4993378854278,
        "timestamp": "2025-12-24T07:45:06.594173+00:00",
        "meta_object_name": "COSMOS 2251 DEB",
        "meta_object_id": "1993-036ACA",
        "meta_epoch": "2025-12-23T22:26:26.464128",
        "meta_mean_motion": 15.06600376,
        "meta_eccentricity": 0.00312033,
        "meta_inclination": 73.9961,
        "meta_ra_of_asc_node": 61.8174,
        "meta_arg_of_pericenter": 197.4625,
        "meta_mean_anomaly": 336.6413,
        "meta_ephemeris_type": 0,
        "meta_classification_type": "U",
        "meta_norad_cat_id": 34856,
        "meta_element_set_no": 999,
        "meta_rev_at_epoch": 89280,
        "meta_bstar": 0.0015962376,
        "meta_mean_motion_dot": 0.00023951,
        "meta_mean_motion_ddot": 0,
        "tle_line1": "1 34856U 93036ACA 25357.93502852  .00023951  00000+0  15962-2 0  9997",
        "tle_line2": "2 34856  73.9961  61.8174 0031203 197.4625 336.6413 15.06600376892800"
      },
      "geometry": {
        "type": "Point",
        "coordinates": [
          -147.26743077520553,
          58.797956874538094
        ]
      }
    },
    {
      "type": "Feature",
      "properties": {
        "norad_id": 34857,
        "name": "COSMOS 2251 DEB",
        "group": "cosmos-2251-debris",
        "lat": -44.630637925803846,
        "lon": 68.29695038800362,
        "alt_km": 715.3613247435096,
        "timestamp": "2025-12-24T07:45:06.594183+00:00",
        "meta_object_name": "COSMOS 2251 DEB",
        "meta_object_id": "1993-036ACB",
        "meta_epoch": "2025-12-23T07:32:58.871328",
        "meta_mean_motion": 14.58991882,
        "meta_eccentricity": 0.00654006,
        "meta_inclination": 74.0154,
        "meta_ra_of_asc_node": 86.6575,
        "meta_arg_of_pericenter": 209.1339,
        "meta_mean_anomaly": 208.8185,
        "meta_ephemeris_type": 0,
        "meta_classification_type": "U",
        "meta_norad_cat_id": 34857,
        "meta_element_set_no": 999,
        "meta_rev_at_epoch": 88055,
        "meta_bstar": 0.0010820228,
        "meta_mean_motion_dot": 5.205e-05,
        "meta_mean_motion_ddot": 0,
        "tle_line1": "1 34857U 93036ACB 25357.31457027  .00005205  00000+0  10820-2 0  9993",
        "tle_line2": "2 34857  74.0154  86.6575 0065400 209.1339 208.8185 14.58991882880552"
      },
      "geometry": {
        "type": "Point",
        "coordinates": [
          68.29695038800362,
          -44.630637925803846
        ]
      }
    },
    {
      "type": "Feature",
      "properties": {
        "norad_id": 34859,
        "name": "COSMOS 2251 DEB",
        "group": "cosmos-2251-debris",
        "lat": 67.31316064262388,
        "lon": 92.28655403398942,
        "alt_km": 509.3701384136457,
        "timestamp": "2025-12-24T07:45:06.594193+00:00",
        "meta_object_name": "COSMOS 2251 DEB",
        "meta_object_id": "1993-036ACD",
        "meta_epoch": "2025-12-22T08:26:37.051872",
        "meta_mean_motion": 15.16155406,
        "meta_eccentricity": 0.00019226,
        "meta_inclination": 74.0288,
        "meta_ra_of_asc_node": 319.6388,
        "meta_arg_of_pericenter": 28.7633,
        "meta_mean_anomaly": 121.9526,
        "meta_ephemeris_type": 0,
        "meta_classification_type": "U",
        "meta_norad_cat_id": 34859,
        "meta_element_set_no": 999,
        "meta_rev_at_epoch": 88504,
        "meta_bstar": 0.0044610477,
        "meta_mean_motion_dot": 0.00087106,
        "meta_mean_motion_ddot": 0,
        "tle_line1": "1 34859U 93036ACD 25356.35181773  .00087106  00000+0  44610-2 0  9994",
        "tle_line2": "2 34859  74.0288 319.6388 0001922  28.7633 121.9526 15.16155406885046"
      },
      "geometry": {
        "type": "Point",
        "coordinates": [
          92.28655403398942,
          67.31316064262388
        ]
      }
    },
    {
      "type": "Feature",
      "properties": {
        "norad_id": 34861,
        "name": "COSMOS 2251 DEB",
        "group": "cosmos-2251-debris",
        "lat": -22.254030245182715,
        "lon": -146.08818140301767,
        "alt_km": 567.6340826249279,
        "timestamp": "2025-12-24T07:45:06.594203+00:00",
        "meta_object_name": "COSMOS 2251 DEB",
        "meta_object_id": "1993-036ACF",
        "meta_epoch": "2025-12-23T20:27:37.747872",
        "meta_mean_motion": 15.03229594,
        "meta_eccentricity": 0.00082989,
        "meta_inclination": 74.0174,
        "meta_ra_of_asc_node": 28.1383,
        "meta_arg_of_pericenter": 17.2491,
        "meta_mean_anomaly": 160.8875,
        "meta_ephemeris_type": 0,
        "meta_classification_type": "U",
        "meta_norad_cat_id": 34861,
        "meta_element_set_no": 999,
        "meta_rev_at_epoch": 88259,
        "meta_bstar": 0.0024555152,
        "meta_mean_motion_dot": 0.00033393,
        "meta_mean_motion_ddot": 0,
        "tle_line1": "1 34861U 93036ACF 25357.85252023  .00033393  00000+0  24555-2 0  9995",
        "tle_line2": "2 34861  74.0174  28.1383 0008298  17.2491 160.8875 15.03229594882590"
      },
      "geometry": {
        "type": "Point",
        "coordinates": [
          -146.08818140301767,
          -22.254030245182715
        ]
      }
    },
    {
      "type": "Feature",
      "properties": {
        "norad_id": 34874,
        "name": "COSMOS 2251 DEB",
        "group": "cosmos-2251-debris",
        "lat": -71.8123465328184,
        "lon": -66.92313225984962,
        "alt_km": 813.3152174041015,
        "timestamp": "2025-12-24T07:45:06.594214+00:00",
        "meta_object_name": "COSMOS 2251 DEB",
        "meta_object_id": "1993-036ACM",
        "meta_epoch": "2025-12-23T21:02:37.180608",
        "meta_mean_motion": 14.36359349,
        "meta_eccentricity": 0.00505002,
        "meta_inclination": 74.0393,
        "meta_ra_of_asc_node": 53.3117,
        "meta_arg_of_pericenter": 74.9465,
        "meta_mean_anomaly": 40.0977,
        "meta_ephemeris_type": 0,
        "meta_classification_type": "U",
        "meta_norad_cat_id": 34874,
        "meta_element_set_no": 999,
        "meta_rev_at_epoch": 87204,
        "meta_bstar": 0.00079290048,
        "meta_mean_motion_dot": 2.329e-05,
        "meta_mean_motion_ddot": 0,
        "tle_line1": "1 34874U 93036ACM 25357.87681922  .00002329  00000+0  79290-3 0  9997",
        "tle_line2": "2 34874  74.0393  53.3117 0050500  74.9465  40.0977 14.36359349872044"
      },
      "geometry": {
        "type": "Point",
        "coordinates": [
          -66.92313225984962,
          -71.8123465328184
        ]
      }
    },
    {
      "type": "Feature",
      "properties": {
        "norad_id": 34875,
        "name": "COSMOS 2251 DEB",
        "group": "cosmos-2251-debris",
        "lat": 57.09003796493995,
        "lon": -69.72465054192514,
        "alt_km": 732.0825636087193,
        "timestamp": "2025-12-24T07:45:06.594224+00:00",
        "meta_object_name": "COSMOS 2251 DEB",
        "meta_object_id": "1993-036ACN",
        "meta_epoch": "2025-12-23T11:37:13.229760",
        "meta_mean_motion": 14.48960585,
        "meta_eccentricity": 0.00162703,
        "meta_inclination": 74.0435,
        "meta_ra_of_asc_node": 138.0839,
        "meta_arg_of_pericenter": 261.11,
        "meta_mean_anomaly": 164.4412,
        "meta_ephemeris_type": 0,
        "meta_classification_type": "U",
        "meta_norad_cat_id": 34875,
        "meta_element_set_no": 999,
        "meta_rev_at_epoch": 87911,
        "meta_bstar": 0.00043552194,
        "meta_mean_motion_dot": 1.626e-05,
        "meta_mean_motion_ddot": 0,
        "tle_line1": "1 34875U 93036ACN 25357.48418090  .00001626  00000+0  43552-3 0  9990",
        "tle_line2": "2 34875  74.0435 138.0839 0016270 261.1100 164.4412 14.48960585879119"
      },
      "geometry": {
        "type": "Point",
        "coordinates": [
          -69.72465054192514,
          57.09003796493995
        ]
      }
    }
  ]
}